{"type": "FeatureCollection", "features": [ {"type": "Feature", "properties": {"norad_id": 28649, "name": "IRS-P5 (CARTOSAT-1)", "group": "resource", "lat": 30.20574241531705, "lon": -168.47848332189966, "alt_km": 595.448726824603, "timestamp": "2025-12-06T09:34:16.574367+00:00", "meta": {"OBJECT_NAME": "IRS-P5 (CARTOSAT-1)", "OBJECT_ID": "2005-017A", "EPOCH": "2025-12-05T23:14:06.836352", "MEAN_MOTION": 14.90369714, "ECCENTRICITY": 0.00016533, "INCLINATION": 97.5495, "RA_OF_ASC_NODE": 6.682, "ARG_OF_PERICENTER": 51.2598, "MEAN_ANOMALY": 308.8768, "EPHEMERIS_TYPE": 0, "CLASSIFICATION_TYPE": "U", "NORAD_CAT_ID": 28649, "ELEMENT_SET_NO": 999, "REV_AT_EPOCH": 11503, "BSTAR": 0.00036368321, "MEAN_MOTION_DOT": 3.487e-05, "MEAN_MOTION_DDOT": 0}, "tle": {"line1": "1 28649U 05017A   25339.96813468  .00003487  00000+0  36368-3 0  9999", "line2": "2 28649  97.5495   6.6820 0001653  51.2598 308.8768 14.90369714115031"}}, "geometry": {"type": "Point", "coordinates": [-168.47848332189966, 30.20574241531705]}}, {"type": "Feature", "properties": {"norad_id": 28893, "name": "SINAH 1", "group": "resource", "lat": 24.39052570690266, "lon": 105.16246732786557, "alt_km": 686.755860817847, "timestamp": "2025-12-06T09:34:16.574378+00:00", "meta": {"OBJECT_NAME": "SINAH 1", "OBJECT_ID": "2005-043D", "EPOCH": "2025-12-05T21:58:33.787776", "MEAN_MOTION": 14.6395027, "ECCENTRICITY": 0.00149695, "INCLINATION": 98.2601, "RA_OF_ASC_NODE": 108.4549, "ARG_OF_PERICENTER": 157.4143, "MEAN_ANOMALY": 202.7721, "EPHEMERIS_TYPE": 0, "CLASSIFICATION_TYPE": "U", "NORAD_CAT_ID": 28893, "ELEMENT_SET_NO": 999, "REV_AT_EPOCH": 7224, "BSTAR": 0.00018750957, "MEAN_MOTION_DOT": 9.34e-06, "MEAN_MOTION_DDOT": 0}, "tle": {"line1": "1 28893U 05043D   25339.91566884  .00000934  00000+0  18751-3 0  9991", "line2": "2 28893  98.2601 108.4549 0014969 157.4143 202.7721 14.63950270 72246"}}, "geometry": {"type": "Point", "coordinates": [105.16246732786557, 24.39052570690266]}}, {"type": "Feature", "properties": {"norad_id": 29079, "name": "EROS B", "group": "resource", "lat": -25.556345259697377, "lon": -86.85568250162297, "alt_km": 375.7741204821468, "timestamp": "2025-12-06T09:34:16.574388+00:00", "meta": {"OBJECT_NAME": "EROS B", "OBJECT_ID": "2006-014A", "EPOCH": "2025-12-05T21:57:30.469536", "MEAN_MOTION": 15.65650514, "ECCENTRICITY": 0.00017705, "INCLINATION": 97.3489, "RA_OF_ASC_NODE": 96.1776, "ARG_OF_PERICENTER": 251.461, "MEAN_ANOMALY": 108.6457, "EPHEMERIS_TYPE": 0, "CLASSIFICATION_TYPE": "U", "NORAD_CAT_ID": 29079, "ELEMENT_SET_NO": 999, "REV_AT_EPOCH": 8973, "BSTAR": 0.0017525663, "MEAN_MOTION_DOT": 0.00179769, "MEAN_MOTION_DDOT": 0}, "tle": {"line1": "1 29079U 06014A   25339.91493599  .00179769  00000+0  17526-2 0  9990", "line2": "2 29079  97.3489  96.1776 0001770 251.4610 108.6457 15.65650514 89735"}}, "geometry": {"type": "Point", "coordinates": [-86.85568250162297, -25.556345259697377]}}, {"type": "Feature", "properties": {"norad_id": 29228, "name": "RESURS-DK 1", "group": "resource", "lat": -68.23635794583544, "lon": 51.93580851659007, "alt_km": 531.2313595718479, "timestamp": "2025-12-06T09:34:16.574399+00:00", "meta": {"OBJECT_NAME": "RESURS-DK 1", "OBJECT_ID": "2006-021A", "EPOCH": "2025-12-05T19:38:30.099552", "MEAN_MOTION": 15.12100582, "ECCENTRICITY": 0.00077897, "INCLINATION": 69.9338, "RA_OF_ASC_NODE": 119.7231, "ARG_OF_PERICENTER": 263.9017, "MEAN_ANOMALY": 96.1261, "EPHEMERIS_TYPE": 0, "CLASSIFICATION_TYPE": "U", "NORAD_CAT_ID": 29228, "ELEMENT_SET_NO": 999, "REV_AT_EPOCH": 7333, "BSTAR": 0.00031090969, "MEAN_MOTION_DOT": 5.264e-05, "MEAN_MOTION_DDOT": 0}, "tle": {"line1": "1 29228U 06021A   25339.81840393  .00005264  00000+0  31091-3 0  9993", "line2": "2 29228  69.9338 119.7231 0007789 263.9017  96.1261 15.12100582 73332"}}, "geometry": {"type": "Point", "coordinates": [51.93580851659007, -68.23635794583544]}}, {"type": "Feature", "properties": {"norad_id": 29268, "name": "ARIRANG-2 (KOMPSAT-2)", "group": "resource", "lat": -78.59046290330055, "lon": -147.84905308949823, "alt_km": 680.0417153728413, "timestamp": "2025-12-06T09:34:16.574410+00:00", "meta": {"OBJECT_NAME": "ARIRANG-2 (KOMPSAT-2)", "OBJECT_ID": "2006-031A", "EPOCH": "2025-12-05T23:14:24.823968", "MEAN_MOTION": 14.64484228, "ECCENTRICITY": 0.00138419, "INCLINATION": 97.8271, "RA_OF_ASC_NODE": 168.7715, "ARG_OF_PERICENTER": 331.6259, "MEAN_ANOMALY": 198.7584, "EPHEMERIS_TYPE": 0, "CLASSIFICATION_TYPE": "U", "NORAD_CAT_ID": 29268, "ELEMENT_SET_NO": 999, "REV_AT_EPOCH": 3319, "BSTAR": 0.00014377981, "MEAN_MOTION_DOT": 7.17e-06, "MEAN_MOTION_DDOT": 0}, "tle": {"line1": "1 29268U 06031A   25339.96834287  .00000717  00000+0  14378-3 0  9996", "line2": "2 29268  97.8271 168.7715 0013841 331.6259 198.7584 14.64484228 33195"}}, "geometry": {"type": "Point", "coordinates": [-147.84905308949823, -78.59046290330055]}}, {"type": "Feature", "properties": {"norad_id": 29709, "name": "LAPAN-TUBSAT", "group": "resource", "lat": 81.86652677501903, "lon": -121.1280854039572, "alt_km": 594.5433516658486, "timestamp": "2025-12-06T09:34:16.574421+00:00", "meta": {"OBJECT_NAME": "LAPAN-TUBSAT", "OBJECT_ID": "2007-001A", "EPOCH": "2025-12-05T23:28:07.668192", "MEAN_MOTION": 14.85654744, "ECCENTRICITY": 0.00136291, "INCLINATION": 98.1251, "RA_OF_ASC_NODE": 329.9956, "ARG_OF_PERICENTER": 94.2434, "MEAN_ANOMALY": 266.0338, "EPHEMERIS_TYPE": 0, "CLASSIFICATION_TYPE": "U", "NORAD_CAT_ID": 29709, "ELEMENT_SET_NO": 999, "REV_AT_EPOCH": 2246, "BSTAR": 0.00014950002, "MEAN_MOTION_DOT": 1.24e-05, "MEAN_MOTION_DDOT": 0}, "tle": {"line1": "1 29709U 07001A   25339.97786653  .00001240  00000+0  14950-3 0  9996", "line2": "2 29709  98.1251 329.9956 0013629  94.2434 266.0338 14.85654744 22465"}}, "geometry": {"type": "Point", "coordinates": [-121.1280854039572, 81.86652677501903]}}, {"type": "Feature", "properties": {"norad_id": 31113, "name": "HAIYANG-1B", "group": "resource", "lat": 37.01953128924313, "lon": 151.28292781566262, "alt_km": 785.2755970127246, "timestamp": "2025-12-06T09:34:16.574432+00:00", "meta": {"OBJECT_NAME": "HAIYANG-1B", "OBJECT_ID": "2007-010A", "EPOCH": "2025-12-05T22:50:25.239264", "MEAN_MOTION": 14.30961499, "ECCENTRICITY": 0.00145226, "INCLINATION": 98.3308, "RA_OF_ASC_NODE": 324.5105, "ARG_OF_PERICENTER": 56.7967, "MEAN_ANOMALY": 303.4607, "EPHEMERIS_TYPE": 0, "CLASSIFICATION_TYPE": "U", "NORAD_CAT_ID": 31113, "ELEMENT_SET_NO": 999, "REV_AT_EPOCH": 97299, "BSTAR": 0.00010703251, "MEAN_MOTION_DOT": 2.4e-06, "MEAN_MOTION_DDOT": 0}, "tle": {"line1": "1 31113U 07010A   25339.95168101  .00000240  00000+0  10703-3 0  9999", "line2": "2 31113  98.3308 324.5105 0014522  56.7967 303.4607 14.30961499972991"}}, "geometry": {"type": "Point", "coordinates": [151.28292781566262, 37.01953128924313]}}, {"type": "Feature", "properties": {"norad_id": 31598, "name": "COSMO-SKYMED 1", "group": "resource", "lat": 2.8357951312782355, "lon": -13.849858026897605, "alt_km": 583.0363616885143, "timestamp": "2025-12-06T09:34:16.574443+00:00", "meta": {"OBJECT_NAME": "COSMO-SKYMED 1", "OBJECT_ID": "2007-023A", "EPOCH": "2025-12-05T23:08:55.811904", "MEAN_MOTION": 14.95688612, "ECCENTRICITY": 0.00012097, "INCLINATION": 97.8836, "RA_OF_ASC_NODE": 165.32, "ARG_OF_PERICENTER": 78.17, "MEAN_ANOMALY": 281.9656, "EPHEMERIS_TYPE": 0, "CLASSIFICATION_TYPE": "U", "NORAD_CAT_ID": 31598, "ELEMENT_SET_NO": 999, "REV_AT_EPOCH": 89, "BSTAR": 0.00052331344, "MEAN_MOTION_DOT": 5.766e-05, "MEAN_MOTION_DDOT": 0}, "tle": {"line1": "1 31598U 07023A   25339.96453486  .00005766  00000+0  52331-3 0  9995", "line2": "2 31598  97.8836 165.3200 0001209  78.1700 281.9656 14.95688612   895"}}, "geometry": {"type": "Point", "coordinates": [-13.849858026897605, 2.8357951312782355]}}, {"type": "Feature", "properties": {"norad_id": 31698, "name": "TERRASAR-X", "group": "resource", "lat": 18.91193549239069, "lon": -16.695654254892656, "alt_km": 508.0592164566842, "timestamp": "2025-12-06T09:34:16.574457+00:00", "meta": {"OBJECT_NAME": "TERRASAR-X", "OBJECT_ID": "2007-026A", "EPOCH": "2025-12-05T14:31:03.290880", "MEAN_MOTION": 15.19155481, "ECCENTRICITY": 0.00018634, "INCLINATION": 97.4446, "RA_OF_ASC_NODE": 345.0897, "ARG_OF_PERICENTER": 81.8163, "MEAN_ANOMALY": 278.3283, "EPHEMERIS_TYPE": 0, "CLASSIFICATION_TYPE": "U", "NORAD_CAT_ID": 31698, "ELEMENT_SET_NO": 999, "REV_AT_EPOCH": 2383, "BSTAR": 0.00015422933, "MEAN_MOTION_DOT": 3.174e-05, "MEAN_MOTION_DDOT": 0}, "tle": {"line1": "1 31698U 07026A   25339.60489920  .00003174  00000+0  15423-3 0  9994", "line2": "2 31698  97.4446 345.0897 0001863  81.8163 278.3283 15.19155481 23833"}}, "geometry": {"type": "Point", "coordinates": [-16.695654254892656, 18.91193549239069]}}, {"type": "Feature", "properties": {"norad_id": 32060, "name": "WORLDVIEW-1 (WV-1)", "group": "resource", "lat": -74.35594581529546, "lon": -109.61893004281836, "alt_km": 499.9908675423658, "timestamp": "2025-12-06T09:34:16.574479+00:00", "meta": {"OBJECT_NAME": "WORLDVIEW-1 (WV-1)", "OBJECT_ID": "2007-041A", "EPOCH": "2025-12-05T21:25:26.858208", "MEAN_MOTION": 15.24515459, "ECCENTRICITY": 7.092e-05, "INCLINATION": 97.3844, "RA_OF_ASC_NODE": 97.4713, "ARG_OF_PERICENTER": 100.343, "MEAN_ANOMALY": 259.7887, "EPHEMERIS_TYPE": 0, "CLASSIFICATION_TYPE": "U", "NORAD_CAT_ID": 32060, "ELEMENT_SET_NO": 999, "REV_AT_EPOCH": 1343, "BSTAR": 0.00051440308, "MEAN_MOTION_DOT": 0.00012591, "MEAN_MOTION_DDOT": 0}, "tle": {"line1": "1 32060U 07041A   25339.89267197  .00012591  00000+0  51440-3 0  9998", "line2": "2 32060  97.3844  97.4713 0000709 100.3430 259.7887 15.24515459 13434"}}, "geometry": {"type": "Point", "coordinates": [-109.61893004281836, -74.35594581529546]}}]}